[Satellite]
VERSION=1.1
NAME=CZ-4B R/B
NICKNAME=CZ-4B R/B
TLE1=1 44531U 19059D   19279.21773987 -.00000085  00000-0  84226-6 0  9995
TLE2=2 44531  98.6808 354.9136 0203073 308.1802  50.1272 14.90745770  3594
STATUS=0
